ORBCOMM FM05            
1 25117U 97084F   25224.38559710  .00001219  00000+0  37857-3 0  9992
2 25117  45.0149  98.1958 0002106 113.2010 246.9063 14.46079652448749
ORBCOMM FM06            
1 25118U 97084G   25224.40488179  .00001441  00000+0  43896-3 0  9993
2 25118  45.0142  97.7790 0001236  92.7230  77.0792 14.46220476449666
ORBCOMM FM07            
1 25119U 97084H   25224.38573576  .00001379  00000+0  42187-3 0  9999
2 25119  45.0137  98.6378 0002963 114.4270 245.6891 14.46223520449652
ORBCOMM FM03            
1 25158U 98007B   25224.60737747  .00000793  00000+0  32340-3 0  9994
2 25158 107.9676 251.5172 0044207 152.3462 208.0041 14.34607958432137
ORBCOMM FM04            
1 25159U 98007C   25224.58191230  .00000880  00000+0  35298-3 0  9995
2 25159 107.9664 254.7248 0039925 150.0052 210.3386 14.34853272432315
ORBCOMM FM17            
1 25413U 98046A   25224.36687257  .00000783  00000+0  32047-3 0  9997
2 25413  44.9958 352.4493 0003640 156.5252 203.5762 14.35180971411241
ORBCOMM FM18            
1 25414U 98046B   25224.39132552  .00000830  00000+0  31406-3 0  9995
2 25414  44.9924 268.2255 0006528 224.0930 135.9399 14.38669299412341
ORBCOMM FM19            
1 25415U 98046C   25224.41793572  .00000863  00000+0  32625-3 0  9994
2 25415  44.9936 270.1865 0005254 224.2589 150.6567 14.38480500412304
